{
    "links": {
        "self": "http://www.neowsapp.com/rest/v1/neo/3292344?api_key=iIulBulltgU6a56xZRHN4H3l9WmuAYTsLGpBGhQ2"
    },
    "id": "3292344",
    "neo_reference_id": "3292344",
    "name": "(2005 TL)",
    "designation": "2005 TL",
    "nasa_jpl_url": "http://ssd.jpl.nasa.gov/sbdb.cgi?sstr=3292344",
    "absolute_magnitude_h": 21.2,
    "estimated_diameter": {
        "kilometers": {
            "estimated_diameter_min": 0.1529519353,
            "estimated_diameter_max": 0.3420109247
        },
        "meters": {
            "estimated_diameter_min": 152.9519353442,
            "estimated_diameter_max": 342.0109247198
        },
        "miles": {
            "estimated_diameter_min": 0.095039897,
            "estimated_diameter_max": 0.2125156703
        },
        "feet": {
            "estimated_diameter_min": 501.8108275547,
            "estimated_diameter_max": 1122.0831222578
        }
    },
    "is_potentially_hazardous_asteroid": false,
    "close_approach_data": [
        {
            "close_approach_date": "2005-09-07",
            "close_approach_date_full": "2005-Sep-07 22:51",
            "epoch_date_close_approach": 1126133460000,
            "relative_velocity": {
                "kilometers_per_second": "3.3680808093",
                "kilometers_per_hour": "12125.0909134016",
                "miles_per_hour": "7534.0599622745"
            },
            "miss_distance": {
                "astronomical": "0.2836846096",
                "lunar": "110.3533131344",
                "kilometers": "42438613.347941552",
                "miles": "26370131.5351633376"
            },
            "orbiting_body": "Earth"
        }
    ],
    "orbital_data": {
        "orbit_id": "11",
        "orbit_determination_date": "2017-04-06 09:10:21",
        "first_observation_date": "2005-09-03",
        "last_observation_date": "2005-10-22",
        "data_arc_in_days": 49,
        "observations_used": 30,
        "orbit_uncertainty": "6",
        "minimum_orbit_intersection": ".278908",
        "jupiter_tisserand_invariant": "3.394",
        "epoch_osculation": "2459000.5",
        "eccentricity": ".4573789266351991",
        "semi_major_axis": "2.366320831030578",
        "inclination": "5.131019500061667",
        "ascending_node_longitude": "182.8865215982452",
        "orbital_period": "1329.56283606047",
        "perihelion_distance": "1.2840155492593",
        "perihelion_argument": "164.1790601549366",
        "aphelion_distance": "3.448626112801856",
        "perihelion_time": "2458945.746765768446",
        "mean_anomaly": "14.82529729979822",
        "mean_motion": ".2707656909745534",
        "equinox": "J2000",
        "orbit_class": {
            "orbit_class_type": "AMO",
            "orbit_class_description": "Near-Earth asteroid orbits similar to that of 1221 Amor",
            "orbit_class_range": "1.017 AU < q (perihelion) < 1.3 AU"
        }
    },
    "is_sentry_object": false
}